STARLINK-30584          
1 58089U 23160Q   26068.40495327  .00001950  00000+0  80360-4 0  9993
2 58089  43.0011  79.3676 0000785 240.9900 119.0873 15.27583104132903
FLOCK 4G-3              
1 62639U 25009AG  26068.80174065  .00011494  00000+0  43389-3 0  9993
2 62639  97.4062 151.4068 0001320 293.2042  66.9058 15.27179310 63727
